H1 CPF  1  DLR 2022 05 17 10  6372 technosat            
H2  1704205 6203    42829 2022 05 17 00 00 00 2022 05 24 00 00 00    60 1 1  0 0 0
H9
10 0 59717  64800.000000  0       3405374.926        935319.984      -6027138.483
10 0 59717  64860.000000  0       3068556.030        708633.861      -6235940.470
10 0 59717  64920.000000  0       2716954.266        482004.045      -6418541.452
10 0 59717  64980.000000  0       2352047.374        256499.802      -6574188.347
10 0 59717  65040.000000  0       1975375.672         33171.460      -6702240.291
10 0 59717  65100.000000  0       1588535.709       -186954.315      -6802170.983
10 0 59717  65160.000000  0       1193173.554       -402879.097      -6873570.645
10 0 59717  65220.000000  0        790977.846       -613637.072      -6916147.385
10 0 59717  65280.000000  0        383672.793       -818299.164      -6929728.115
10 0 59717  65340.000000  0        -26988.950      -1015976.957      -6914259.101
10 0 59717  65400.000000  0       -439233.530      -1205826.379      -6869806.131
10 0 59717  65460.000000  0       -851273.304      -1387051.171      -6796554.306
10 0 59717  65520.000000  0      -1261314.358      -1558906.127      -6694807.341
10 0 59717  65580.000000  0      -1667564.063      -1720700.081      -6564986.449
10 0 59717  65640.000000  0      -2068238.683      -1871798.622      -6407628.741
10 0 59717  65700.000000  0      -2461570.916      -2011626.486      -6223385.230
10 0 59717  65760.000000  0      -2845817.449      -2139669.720      -6013018.511
10 0 59717  65820.000000  0      -3219266.543      -2255477.597      -5777400.026
10 0 59717  65880.000000  0      -3580245.619      -2358664.230      -5517506.876
10 0 59717  65940.000000  0      -3927128.772      -2448909.879      -5234418.161
10 0 59717  66000.000000  0      -4258344.121      -2525961.937      -4929310.857
10 0 59717  66060.000000  0      -4572380.982      -2589635.595      -4603455.316
10 0 59717  66120.000000  0      -4867796.888      -2639814.205      -4258210.368
10 0 59717  66180.000000  0      -5143224.399      -2676449.312      -3895018.013
10 0 59717  66240.000000  0      -5397377.671      -2699560.361      -3515397.707
10 0 59717  66300.000000  0      -5629058.730      -2709234.058      -3120940.260
10 0 59717  66360.000000  0      -5837163.409      -2705623.393      -2713301.369
10 0 59717  66420.000000  0      -6020686.884      -2688946.347      -2294194.820
10 0 59717  66480.000000  0      -6178728.836      -2659484.282      -1865385.410
10 0 59717  66540.000000  0      -6310498.197      -2617579.998      -1428681.553
10 0 59717  66600.000000  0      -6415317.389      -2563635.467       -985927.610
10 0 59717  66660.000000  0      -6492626.040      -2498109.268       -538996.038
10 0 59717  66720.000000  0      -6541984.194      -2421513.737        -89779.369
10 0 59717  66780.000000  0      -6563074.982      -2334411.838        359817.976
10 0 59717  66840.000000  0      -6555706.696      -2237413.758        807887.980
10 0 59717  66900.000000  0      -6519814.251      -2131173.276       1252527.394
10 0 59717  66960.000000  0      -6455459.990      -2016383.912       1691846.100
10 0 59717  67020.000000  0      -6362833.847      -1893774.890       2123975.413
10 0 59717  67080.000000  0      -6242252.901      -1764106.921       2547076.236
10 0 59717  67140.000000  0      -6094160.396      -1628167.838       2959347.097
10 0 59717  67200.000000  0      -5919124.144      -1486768.130       3359032.105
10 0 59717  67260.000000  0      -5717834.225      -1340736.364       3744428.736
10 0 59717  67320.000000  0      -5491100.016      -1190914.533       4113895.254
10 0 59717  67380.000000  0      -5239846.697      -1038153.382       4465857.754
10 0 59717  67440.000000  0      -4965111.300       -883307.774       4798816.894
10 0 59717  67500.000000  0      -4668038.262       -727232.064       5111354.325
10 0 59717  67560.000000  0      -4349874.498       -570775.531       5402138.775
10 0 59717  67620.000000  0      -4011963.948       -414777.849       5669931.809
10 0 59717  67680.000000  0      -3655741.623       -260064.652       5913593.062
10 0 59717  67740.000000  0      -3282727.293       -107443.235       6132085.058
10 0 59717  67800.000000  0      -2894518.753         42301.607       6324477.544
10 0 59717  67860.000000  0      -2492784.793        188411.511       6489951.347
10 0 59717  67920.000000  0      -2079257.855        330158.298       6627801.792
10 0 59717  67980.000000  0      -1655726.396        466847.569       6737441.628
10 0 59717  68040.000000  0      -1224027.032        597822.108       6818403.410
10 0 59717  68100.000000  0       -786036.511        722465.025       6870341.430
10 0 59717  68160.000000  0       -343663.463        840202.656       6893033.147
10 0 59717  68220.000000  0        101159.965        950507.214       6886380.106
10 0 59717  68280.000000  0        546486.593       1052899.178       6850408.410
10 0 59717  68340.000000  0        990362.821       1146949.443       6785268.654
10 0 59717  68400.000000  0       1430837.275       1232281.153       6691235.336
10 0 59717  68460.000000  0       1865969.461       1308571.239       6568705.757
10 0 59717  68520.000000  0       2293838.390       1375551.657       6418198.453
10 0 59717  68580.000000  0       2712551.173       1433010.336       6240351.166
10 0 59717  68640.000000  0       3120251.631       1480791.825       6035918.284
10 0 59717  68700.000000  0       3515128.718       1518797.607       5805767.680
10 0 59717  68760.000000  0       3895424.699       1546986.109       5550877.106
10 0 59717  68820.000000  0       4259443.152       1565372.420       5272330.184
10 0 59717  68880.000000  0       4605556.760       1574027.721       4971311.967
10 0 59717  68940.000000  0       4932214.931       1573078.421       4649104.057
10 0 59717  69000.000000  0       5237951.173       1562704.934       4307079.171
10 0 59717  69060.000000  0       5521390.033       1543140.181       3946695.164
10 0 59717  69120.000000  0       5781253.496       1514667.864       3569488.641
10 0 59717  69180.000000  0       6016366.965       1477620.372       3177068.358
10 0 59717  69240.000000  0       6225664.866       1432376.394       2771108.295
10 0 59717  69300.000000  0       6408195.765       1379358.335       2353340.347
10 0 59717  69360.000000  0       6563126.933       1319029.508       1925546.689
10 0 59717  69420.000000  0       6689748.311       1251891.090       1489551.852
10 0 59717  69480.000000  0       6787475.811       1178478.848       1047214.672
10 0 59717  69540.000000  0       6855854.083       1099359.703        600420.139
10 0 59717  69600.000000  0       6894558.717       1015128.139        151071.041
10 0 59717  69660.000000  0       6903397.704        926402.452       -298920.533
10 0 59717  69720.000000  0       6882312.190        833820.884       -747641.639
10 0 59717  69780.000000  0       6831376.578        738037.685      -1193186.867
10 0 59717  69840.000000  0       6750798.002        639719.070      -1633666.632
10 0 59717  69900.000000  0       6640915.223        539539.146      -2067215.370
10 0 59717  69960.000000  0       6502196.842        438175.855      -2491999.613
10 0 59717  70020.000000  0       6335238.907        336306.936      -2906225.830
10 0 59717  70080.000000  0       6140761.952        234605.914      -3308148.041
10 0 59717  70140.000000  0       5919607.443        133738.141      -3696075.191
10 0 59717  70200.000000  0       5672733.658         34356.937      -4068378.192
10 0 59717  70260.000000  0       5401211.024        -62900.153      -4423496.607
10 0 59717  70320.000000  0       5106217.017       -157414.980      -4759944.909
10 0 59717  70380.000000  0       4789030.687       -248592.243      -5076318.377
10 0 59717  70440.000000  0       4451026.790       -335862.785      -5371298.638
10 0 59717  70500.000000  0       4093669.556       -418686.718      -5643658.820
10 0 59717  70560.000000  0       3718506.111       -496556.381      -5892268.300
10 0 59717  70620.000000  0       3327159.560       -568999.091      -6116097.025
10 0 59717  70680.000000  0       2921321.779       -635579.645      -6314219.334
10 0 59717  70740.000000  0       2502746.044       -695902.566      -6485817.309
10 0 59717  70800.000000  0       2073239.504       -749614.163      -6630183.716
10 0 59717  70860.000000  0       1634655.498       -796404.362      -6746724.574
10 0 59717  70920.000000  0       1188885.693       -836008.320      -6834961.303
10 0 59717  70980.000000  0        737852.061       -868207.717      -6894532.431
10 0 59717  71040.000000  0        283498.778       -892831.798      -6925194.798
10 0 59717  71100.000000  0       -172215.850       -909758.183      -6926824.325
10 0 59717  71160.000000  0       -627327.502       -918913.438      -6899416.464
10 0 59717  71220.000000  0      -1079874.059       -920273.379      -6843086.230
10 0 59717  71280.000000  0      -1527903.806       -913863.091      -6758067.711
10 0 59717  71340.000000  0      -1969483.580       -899756.693      -6644713.187
10 0 59717  71400.000000  0      -2402706.841       -878076.866      -6503491.749
10 0 59717  71460.000000  0      -2825701.565       -848994.117      -6334987.564
10 0 59717  71520.000000  0      -3236638.091       -812725.787      -6139897.840
10 0 59717  71580.000000  0      -3633736.953       -769534.828      -5919030.362
10 0 59717  71640.000000  0      -4015276.584       -719728.313      -5673300.490
10 0 59717  71700.000000  0      -4379600.759       -663655.685      -5403727.712
10 0 59717  71760.000000  0      -4725125.801       -601706.790      -5111431.817
10 0 59717  71820.000000  0      -5050347.569       -534309.687      -4797628.658
10 0 59717  71880.000000  0      -5353848.175       -461928.251      -4463625.527
10 0 59717  71940.000000  0      -5634302.457       -385059.551      -4110816.119
99
